[{"OBJECT_NAME":"STARLINK-35279","OBJECT_ID":"2025-235M","EPOCH":"2026-03-23T12:54:41.584320","MEAN_MOTION":15.3022422,"ECCENTRICITY":0.0001278,"INCLINATION":53.159,"RA_OF_ASC_NODE":180.8051,"ARG_OF_PERICENTER":115.8594,"MEAN_ANOMALY":244.2539,"EPHEMERIS_TYPE":0,"CLASSIFICATION_TYPE":"U","NORAD_CAT_ID":66069,"ELEMENT_SET_NO":999,"REV_AT_EPOCH":2504,"BSTAR":0.00087644,"MEAN_MOTION_DOT":0.00025708,"MEAN_MOTION_DDOT":0},{"OBJECT_NAME":"STARLINK-35295","OBJECT_ID":"2025-235N","EPOCH":"2026-03-22T15:57:13.935168","MEAN_MOTION":15.30152517,"ECCENTRICITY":0.00014383,"INCLINATION":53.1588,"RA_OF_ASC_NODE":185.3098,"ARG_OF_PERICENTER":119.0288,"MEAN_ANOMALY":241.0857,"EPHEMERIS_TYPE":0,"CLASSIFICATION_TYPE":"U","NORAD_CAT_ID":66070,"ELEMENT_SET_NO":999,"REV_AT_EPOCH":2490,"BSTAR":0.0014947377,"MEAN_MOTION_DOT":0.00044109,"MEAN_MOTION_DDOT":0},{"OBJECT_NAME":"STARLINK-35323","OBJECT_ID":"2025-235P","EPOCH":"2026-03-23T00:04:01.529472","MEAN_MOTION":15.30235396,"ECCENTRICITY":0.00014695,"INCLINATION":53.1607,"RA_OF_ASC_NODE":183.1521,"ARG_OF_PERICENTER":74.1235,"MEAN_ANOMALY":285.9928,"EPHEMERIS_TYPE":0,"CLASSIFICATION_TYPE":"U","NORAD_CAT_ID":66071,"ELEMENT_SET_NO":999,"REV_AT_EPOCH":2496,"BSTAR":0.0012240986,"MEAN_MOTION_DOT":0.00036111,"MEAN_MOTION_DDOT":0},{"OBJECT_NAME":"STARLINK-35299","OBJECT_ID":"2025-235Q","EPOCH":"2026-03-23T13:31:09.571008","MEAN_MOTION":15.301851,"ECCENTRICITY":0.0002839,"INCLINATION":53.1567,"RA_OF_ASC_NODE":180.9657,"ARG_OF_PERICENTER":294.3011,"MEAN_ANOMALY":65.7693,"EPHEMERIS_TYPE":0,"CLASSIFICATION_TYPE":"U","NORAD_CAT_ID":66072,"ELEMENT_SET_NO":999,"REV_AT_EPOCH":2504,"BSTAR":0.0010927,"MEAN_MOTION_DOT":0.0003213,"MEAN_MOTION_DDOT":0},{"OBJECT_NAME":"STARLINK-35274","OBJECT_ID":"2025-235R","EPOCH":"2026-03-23T02:57:07.373664","MEAN_MOTION":15.30242255,"ECCENTRICITY":0.0001432,"INCLINATION":53.1589,"RA_OF_ASC_NODE":183.198,"ARG_OF_PERICENTER":59.8105,"MEAN_ANOMALY":300.3037,"EPHEMERIS_TYPE":0,"CLASSIFICATION_TYPE":"U","NORAD_CAT_ID":66073,"ELEMENT_SET_NO":999,"REV_AT_EPOCH":2497,"BSTAR":0.0022874512,"MEAN_MOTION_DOT":0.00068101,"MEAN_MOTION_DDOT":0},{"OBJECT_NAME":"STARLINK-35321","OBJECT_ID":"2025-235S","EPOCH":"2026-03-23T13:46:22.350720","MEAN_MOTION":15.30221606,"ECCENTRICITY":0.000145,"INCLINATION":53.1588,"RA_OF_ASC_NODE":181.0318,"ARG_OF_PERICENTER":94.7743,"MEAN_ANOMALY":265.3423,"EPHEMERIS_TYPE":0,"CLASSIFICATION_TYPE":"U","NORAD_CAT_ID":66074,"ELEMENT_SET_NO":999,"REV_AT_EPOCH":2504,"BSTAR":0.00094812,"MEAN_MOTION_DOT":0.00027846,"MEAN_MOTION_DDOT":0},{"OBJECT_NAME":"STARLINK-35131","OBJECT_ID":"2025-235T","EPOCH":"2026-03-23T13:19:00.054336","MEAN_MOTION":15.30227531,"ECCENTRICITY":0.0001111,"INCLINATION":53.1578,"RA_OF_ASC_NODE":180.909,"ARG_OF_PERICENTER":87.3954,"MEAN_ANOMALY":272.7174,"EPHEMERIS_TYPE":0,"CLASSIFICATION_TYPE":"U","NORAD_CAT_ID":66075,"ELEMENT_SET_NO":999,"REV_AT_EPOCH":2504,"BSTAR":0.00062642,"MEAN_MOTION_DOT":0.00018255,"MEAN_MOTION_DDOT":0},{"OBJECT_NAME":"STARLINK-34801","OBJECT_ID":"2025-235U","EPOCH":"2026-03-23T13:37:14.636064","MEAN_MOTION":15.30238159,"ECCENTRICITY":0.0001043,"INCLINATION":53.1585,"RA_OF_ASC_NODE":180.9898,"ARG_OF_PERICENTER":61.9569,"MEAN_ANOMALY":298.1537,"EPHEMERIS_TYPE":0,"CLASSIFICATION_TYPE":"U","NORAD_CAT_ID":66076,"ELEMENT_SET_NO":999,"REV_AT_EPOCH":2504,"BSTAR":0.0010437,"MEAN_MOTION_DOT":0.00030716,"MEAN_MOTION_DDOT":0},{"OBJECT_NAME":"STARLINK-35129","OBJECT_ID":"2025-235V","EPOCH":"2026-03-23T13:28:07.256640","MEAN_MOTION":15.30232062,"ECCENTRICITY":0.0001693,"INCLINATION":53.1571,"RA_OF_ASC_NODE":180.9498,"ARG_OF_PERICENTER":102.1267,"MEAN_ANOMALY":257.9923,"EPHEMERIS_TYPE":0,"CLASSIFICATION_TYPE":"U","NORAD_CAT_ID":66077,"ELEMENT_SET_NO":999,"REV_AT_EPOCH":2504,"BSTAR":0.0011043,"MEAN_MOTION_DOT":0.00032522,"MEAN_MOTION_DDOT":0},{"OBJECT_NAME":"STARLINK-35116","OBJECT_ID":"2025-235W","EPOCH":"2026-03-23T12:59:15.334944","MEAN_MOTION":15.30224914,"ECCENTRICITY":0.0001273,"INCLINATION":53.159,"RA_OF_ASC_NODE":180.8226,"ARG_OF_PERICENTER":116.7287,"MEAN_ANOMALY":243.3844,"EPHEMERIS_TYPE":0,"CLASSIFICATION_TYPE":"U","NORAD_CAT_ID":66078,"ELEMENT_SET_NO":999,"REV_AT_EPOCH":2504,"BSTAR":0.0010863,"MEAN_MOTION_DOT":0.00031979,"MEAN_MOTION_DDOT":0},{"OBJECT_NAME":"STARLINK-35402","OBJECT_ID":"2025-235X","EPOCH":"2026-03-23T12:50:08.242368","MEAN_MOTION":15.3023628,"ECCENTRICITY":0.0001553,"INCLINATION":53.1602,"RA_OF_ASC_NODE":180.783,"ARG_OF_PERICENTER":76.3087,"MEAN_ANOMALY":283.8086,"EPHEMERIS_TYPE":0,"CLASSIFICATION_TYPE":"U","NORAD_CAT_ID":66079,"ELEMENT_SET_NO":999,"REV_AT_EPOCH":2504,"BSTAR":0.00098212,"MEAN_MOTION_DOT":0.00028874,"MEAN_MOTION_DDOT":0},{"OBJECT_NAME":"STARLINK-35325","OBJECT_ID":"2025-235Y","EPOCH":"2026-03-22T15:11:37.770720","MEAN_MOTION":15.30189791,"ECCENTRICITY":0.00013251,"INCLINATION":53.1594,"RA_OF_ASC_NODE":185.1109,"ARG_OF_PERICENTER":57.9928,"MEAN_ANOMALY":302.1201,"EPHEMERIS_TYPE":0,"CLASSIFICATION_TYPE":"U","NORAD_CAT_ID":66080,"ELEMENT_SET_NO":999,"REV_AT_EPOCH":2490,"BSTAR":0.00078761115,"MEAN_MOTION_DOT":0.00023033,"MEAN_MOTION_DDOT":0},{"OBJECT_NAME":"STARLINK-35403","OBJECT_ID":"2025-235Z","EPOCH":"2026-03-22T23:59:28.137408","MEAN_MOTION":15.30220594,"ECCENTRICITY":0.00012472,"INCLINATION":53.1605,"RA_OF_ASC_NODE":183.1306,"ARG_OF_PERICENTER":119.3684,"MEAN_ANOMALY":240.7441,"EPHEMERIS_TYPE":0,"CLASSIFICATION_TYPE":"U","NORAD_CAT_ID":66081,"ELEMENT_SET_NO":999,"REV_AT_EPOCH":2496,"BSTAR":0.0015359725,"MEAN_MOTION_DOT":0.00045439,"MEAN_MOTION_DDOT":0},{"OBJECT_NAME":"STARLINK-35011","OBJECT_ID":"2025-235AA","EPOCH":"2026-03-23T12:41:01.152384","MEAN_MOTION":15.30245892,"ECCENTRICITY":8.8e-5,"INCLINATION":53.1605,"RA_OF_ASC_NODE":180.7431,"ARG_OF_PERICENTER":120.4579,"MEAN_ANOMALY":239.6508,"EPHEMERIS_TYPE":0,"CLASSIFICATION_TYPE":"U","NORAD_CAT_ID":66082,"ELEMENT_SET_NO":999,"REV_AT_EPOCH":2504,"BSTAR":0.0013686,"MEAN_MOTION_DOT":0.00040453,"MEAN_MOTION_DDOT":0},{"OBJECT_NAME":"STARLINK-35291","OBJECT_ID":"2025-235AB","EPOCH":"2026-03-22T23:52:03.489312","MEAN_MOTION":15.30210762,"ECCENTRICITY":0.0001155,"INCLINATION":53.1595,"RA_OF_ASC_NODE":183.8084,"ARG_OF_PERICENTER":103.5277,"MEAN_ANOMALY":256.5853,"EPHEMERIS_TYPE":0,"CLASSIFICATION_TYPE":"U","NORAD_CAT_ID":66083,"ELEMENT_SET_NO":999,"REV_AT_EPOCH":2492,"BSTAR":0.0022267777,"MEAN_MOTION_DOT":0.00066203,"MEAN_MOTION_DDOT":0},{"OBJECT_NAME":"STARLINK-35379","OBJECT_ID":"2025-235AC","EPOCH":"2026-03-23T13:40:17.035968","MEAN_MOTION":15.30229355,"ECCENTRICITY":0.0001938,"INCLINATION":53.1586,"RA_OF_ASC_NODE":180.9968,"ARG_OF_PERICENTER":106.7434,"MEAN_ANOMALY":253.3779,"EPHEMERIS_TYPE":0,"CLASSIFICATION_TYPE":"U","NORAD_CAT_ID":66084,"ELEMENT_SET_NO":999,"REV_AT_EPOCH":2504,"BSTAR":0.00067794,"MEAN_MOTION_DOT":0.00019791,"MEAN_MOTION_DDOT":0},{"OBJECT_NAME":"STARLINK-35370","OBJECT_ID":"2025-235AD","EPOCH":"2026-03-22T23:42:55.927584","MEAN_MOTION":15.30196293,"ECCENTRICITY":0.00012192,"INCLINATION":53.1593,"RA_OF_ASC_NODE":183.767,"ARG_OF_PERICENTER":69.0173,"MEAN_ANOMALY":291.0958,"EPHEMERIS_TYPE":0,"CLASSIFICATION_TYPE":"U","NORAD_CAT_ID":66085,"ELEMENT_SET_NO":999,"REV_AT_EPOCH":2492,"BSTAR":0.0012241325,"MEAN_MOTION_DOT":0.00036068,"MEAN_MOTION_DDOT":0},{"OBJECT_NAME":"STARLINK-35596","OBJECT_ID":"2025-236A","EPOCH":"2026-03-23T04:00:59.246496","MEAN_MOTION":15.3020929,"ECCENTRICITY":0.00012749,"INCLINATION":53.1601,"RA_OF_ASC_NODE":41.5871,"ARG_OF_PERICENTER":68.4342,"MEAN_ANOMALY":291.6795,"EPHEMERIS_TYPE":0,"CLASSIFICATION_TYPE":"U","NORAD_CAT_ID":66086,"ELEMENT_SET_NO":999,"REV_AT_EPOCH":2500,"BSTAR":0.0010462745,"MEAN_MOTION_DOT":0.00030766,"MEAN_MOTION_DDOT":0},{"OBJECT_NAME":"STARLINK-35563","OBJECT_ID":"2025-236B","EPOCH":"2026-03-23T04:47:56.036832","MEAN_MOTION":15.30197039,"ECCENTRICITY":0.0001435,"INCLINATION":53.1611,"RA_OF_ASC_NODE":41.0788,"ARG_OF_PERICENTER":99.0998,"MEAN_ANOMALY":261.0165,"EPHEMERIS_TYPE":0,"CLASSIFICATION_TYPE":"U","NORAD_CAT_ID":66087,"ELEMENT_SET_NO":999,"REV_AT_EPOCH":2495,"BSTAR":0.0010693,"MEAN_MOTION_DOT":0.00031443,"MEAN_MOTION_DDOT":0},{"OBJECT_NAME":"STARLINK-35461","OBJECT_ID":"2025-236C","EPOCH":"2026-03-23T04:25:07.054752","MEAN_MOTION":15.30205032,"ECCENTRICITY":8.002e-5,"INCLINATION":53.1602,"RA_OF_ASC_NODE":40.9807,"ARG_OF_PERICENTER":81.484,"MEAN_ANOMALY":278.6251,"EPHEMERIS_TYPE":0,"CLASSIFICATION_TYPE":"U","NORAD_CAT_ID":66088,"ELEMENT_SET_NO":999,"REV_AT_EPOCH":2495,"BSTAR":0.00036543772,"MEAN_MOTION_DOT":0.00010481,"MEAN_MOTION_DDOT":0},{"OBJECT_NAME":"STARLINK-35571","OBJECT_ID":"2025-236D","EPOCH":"2026-03-23T04:38:49.117056","MEAN_MOTION":15.30155229,"ECCENTRICITY":0.0001443,"INCLINATION":53.1608,"RA_OF_ASC_NODE":41.0409,"ARG_OF_PERICENTER":63.2785,"MEAN_ANOMALY":296.8363,"EPHEMERIS_TYPE":0,"CLASSIFICATION_TYPE":"U","NORAD_CAT_ID":66089,"ELEMENT_SET_NO":999,"REV_AT_EPOCH":2501,"BSTAR":-0.0010204,"MEAN_MOTION_DOT":-0.00030417,"MEAN_MOTION_DDOT":0},{"OBJECT_NAME":"STARLINK-35570","OBJECT_ID":"2025-236E","EPOCH":"2026-03-23T02:41:57.504768","MEAN_MOTION":15.30205426,"ECCENTRICITY":7.881e-5,"INCLINATION":53.1586,"RA_OF_ASC_NODE":41.2438,"ARG_OF_PERICENTER":94.7905,"MEAN_ANOMALY":265.3186,"EPHEMERIS_TYPE":0,"CLASSIFICATION_TYPE":"U","NORAD_CAT_ID":66090,"ELEMENT_SET_NO":999,"REV_AT_EPOCH":2500,"BSTAR":0.00095287017,"MEAN_MOTION_DOT":0.00027973,"MEAN_MOTION_DDOT":0},{"OBJECT_NAME":"STARLINK-35532","OBJECT_ID":"2025-236F","EPOCH":"2026-03-23T04:06:53.419968","MEAN_MOTION":15.30225046,"ECCENTRICITY":0.00010207,"INCLINATION":53.1599,"RA_OF_ASC_NODE":40.8991,"ARG_OF_PERICENTER":88.2746,"MEAN_ANOMALY":271.8372,"EPHEMERIS_TYPE":0,"CLASSIFICATION_TYPE":"U","NORAD_CAT_ID":66091,"ELEMENT_SET_NO":999,"REV_AT_EPOCH":2501,"BSTAR":0.0009131477,"MEAN_MOTION_DOT":0.00026804,"MEAN_MOTION_DDOT":0}]
